SHIJIAN-21 (SJ-21)      
1 49330U 21094A   26087.96218233 -.00000363  00000+0  00000+0 0  9993
2 49330   4.9244  61.6252 0047914 170.2024  68.8509  1.00275859  4554
